KUIPER-00152            
1 65772U 25217L   25329.47362779  .00078214  00000+0  20051-2 0  9991
2 65772  51.8709 147.5282 0001114 156.3429 203.7609 15.38664751  9399
KUIPER-00153            
1 65773U 25217M   25329.23562442  .00008741  00000+0  53793-3 0  9993
2 65773  51.8746 153.3792 0011570 317.9669  42.0417 15.10685374  9294
KUIPER-00155            
1 65774U 25217N   25329.21155867  .00042769  00000+0  11745-2 0  9999
2 65774  51.8653 149.4808 0005595 302.5497  57.4948 15.36800332  9341
KUIPER-00156            
1 65775U 25217P   25328.89740926  .00057458  00000+0  14919-2 0  9996
2 65775  51.8704 150.4183 0002274 257.7608 102.3124 15.38412277  9304
KUIPER-00158            
1 65776U 25217Q   25329.50006943  .00031337  00000+0  16488-2 0  9991
2 65776  51.8751 149.8025 0004559 273.3470 163.0604 15.15369263  4597
KUIPER-00163            
1 65777U 25217R   25329.50006943 -.01123812  00000+0 -78508-1 0  9995
2 65777  51.8771 150.9832 0010346 325.0960 161.8864 15.07822614  3115
KUIPER-00165            
1 65778U 25217S   25328.85292183  .00030029  00000+0  81718-3 0  9999
2 65778  51.8676 150.8535 0003065 269.2946  90.7690 15.37263927  9293
KUIPER-00166            
1 65779U 25217T   25329.49433845  .00061803  00000+0  16224-2 0  9996
2 65779  51.8687 147.6625 0002313 248.7697 111.3043 15.38042612  9390
